{"fetched_at":"2026-07-13T18:16:31.793Z","source":"https://celestrak.org/NORAD/elements/gp.php?GROUP=oneweb&FORMAT=JSON","constellation":"oneweb","records":[{"OBJECT_NAME":"ONEWEB-0120","OBJECT_ID":"2020-100J","EPOCH":"2026-07-12T22:06:05.512032","CLASSIFICATION_TYPE":"U","MEAN_MOTION":13.1244281,"ECCENTRICITY":0.00020508,"INCLINATION":87.8957,"RA_OF_ASC_NODE":345.5524,"ARG_OF_PERICENTER":97.106,"MEAN_ANOMALY":263.0302,"EPHEMERIS_TYPE":0,"NORAD_CAT_ID":47266,"ELEMENT_SET_NO":999,"REV_AT_EPOCH":26810,"BSTAR":-0.00078711046,"MEAN_MOTION_DOT":-0.0000027,"MEAN_MOTION_DDOT":0},{"OBJECT_NAME":"ONEWEB-0121","OBJECT_ID":"2020-100K","EPOCH":"2026-07-12T21:48:48.645504","CLASSIFICATION_TYPE":"U","MEAN_MOTION":13.12442248,"ECCENTRICITY":0.00014413,"INCLINATION":87.8955,"RA_OF_ASC_NODE":345.5448,"ARG_OF_PERICENTER":91.4184,"MEAN_ANOMALY":268.7109,"EPHEMERIS_TYPE":0,"NORAD_CAT_ID":47267,"ELEMENT_SET_NO":999,"REV_AT_EPOCH":26801,"BSTAR":-0.001149339,"MEAN_MOTION_DOT":-0.00000401,"MEAN_MOTION_DDOT":0},{"OBJECT_NAME":"ONEWEB-0122","OBJECT_ID":"2020-100L","EPOCH":"2026-07-12T21:40:16.226976","CLASSIFICATION_TYPE":"U","MEAN_MOTION":13.12441227,"ECCENTRICITY":0.00019142,"INCLINATION":87.8968,"RA_OF_ASC_NODE":345.549,"ARG_OF_PERICENTER":98.2727,"MEAN_ANOMALY":261.8619,"EPHEMERIS_TYPE":0,"NORAD_CAT_ID":47268,"ELEMENT_SET_NO":999,"REV_AT_EPOCH":26792,"BSTAR":-0.00086708269,"MEAN_MOTION_DOT":-0.00000299,"MEAN_MOTION_DDOT":0},{"OBJECT_NAME":"ONEWEB-0123","OBJECT_ID":"2020-100M","EPOCH":"2026-07-12T21:34:10.609824","CLASSIFICATION_TYPE":"U","MEAN_MOTION":13.12441798,"ECCENTRICITY":0.00019056,"INCLINATION":87.8973,"RA_OF_ASC_NODE":345.5526,"ARG_OF_PERICENTER":95.7197,"MEAN_ANOMALY":264.4149,"EPHEMERIS_TYPE":0,"NORAD_CAT_ID":47269,"ELEMENT_SET_NO":999,"REV_AT_EPOCH":26806,"BSTAR":-0.00062066488,"MEAN_MOTION_DOT":-0.00000211,"MEAN_MOTION_DDOT":0},{"OBJECT_NAME":"ONEWEB-0124","OBJECT_ID":"2020-100N","EPOCH":"2026-07-12T21:19:32.784096","CLASSIFICATION_TYPE":"U","MEAN_MOTION":13.12441614,"ECCENTRICITY":0.00016429,"INCLINATION":87.8947,"RA_OF_ASC_NODE":345.5599,"ARG_OF_PERICENTER":91.6823,"MEAN_ANOMALY":268.4494,"EPHEMERIS_TYPE":0,"NORAD_CAT_ID":47270,"ELEMENT_SET_NO":999,"REV_AT_EPOCH":26794,"BSTAR":0.00040536779,"MEAN_MOTION_DOT":0.00000159,"MEAN_MOTION_DDOT":0},{"OBJECT_NAME":"ONEWEB-0125","OBJECT_ID":"2020-100P","EPOCH":"2026-07-12T20:47:50.090208","CLASSIFICATION_TYPE":"U","MEAN_MOTION":13.12443267,"ECCENTRICITY":0.00016174,"INCLINATION":87.8969,"RA_OF_ASC_NODE":345.5496,"ARG_OF_PERICENTER":88.2275,"MEAN_ANOMALY":271.9039,"EPHEMERIS_TYPE":0,"NORAD_CAT_ID":47271,"ELEMENT_SET_NO":999,"REV_AT_EPOCH":26800,"BSTAR":0.00099966764,"MEAN_MOTION_DOT":0.00000372,"MEAN_MOTION_DDOT":0},{"OBJECT_NAME":"ONEWEB-0126","OBJECT_ID":"2020-100Q","EPOCH":"2026-07-12T21:17:19.360032","CLASSIFICATION_TYPE":"U","MEAN_MOTION":13.12441524,"ECCENTRICITY":0.00019327,"INCLINATION":87.8958,"RA_OF_ASC_NODE":345.5594,"ARG_OF_PERICENTER":93.3599,"MEAN_ANOMALY":266.7751,"EPHEMERIS_TYPE":0,"NORAD_CAT_ID":47272,"ELEMENT_SET_NO":999,"REV_AT_EPOCH":26807,"BSTAR":0.00056294938,"MEAN_MOTION_DOT":0.00000215,"MEAN_MOTION_DDOT":0},{"OBJECT_NAME":"ONEWEB-0127","OBJECT_ID":"2020-100R","EPOCH":"2026-07-12T22:18:05.741568","CLASSIFICATION_TYPE":"U","MEAN_MOTION":13.1244404,"ECCENTRICITY":0.00020077,"INCLINATION":87.8957,"RA_OF_ASC_NODE":345.549,"ARG_OF_PERICENTER":97.7383,"MEAN_ANOMALY":262.3973,"EPHEMERIS_TYPE":0,"NORAD_CAT_ID":47273,"ELEMENT_SET_NO":999,"REV_AT_EPOCH":26810,"BSTAR":-0.000045812097,"MEAN_MOTION_DOT":-4e-8,"MEAN_MOTION_DDOT":0},{"OBJECT_NAME":"ONEWEB-0128","OBJECT_ID":"2020-100S","EPOCH":"2026-07-12T20:59:58.520832","CLASSIFICATION_TYPE":"U","MEAN_MOTION":13.12484975,"ECCENTRICITY":0.00011383,"INCLINATION":87.8963,"RA_OF_ASC_NODE":345.5742,"ARG_OF_PERICENTER":124.714,"MEAN_ANOMALY":235.4096,"EPHEMERIS_TYPE":0,"NORAD_CAT_ID":47274,"ELEMENT_SET_NO":999,"REV_AT_EPOCH":26811,"BSTAR":0.015679425,"MEAN_MOTION_DOT":0.0000566,"MEAN_MOTION_DDOT":0},{"OBJECT_NAME":"ONEWEB-0129","OBJECT_ID":"2020-100T","EPOCH":"2026-07-12T22:20:32.142912","CLASSIFICATION_TYPE":"U","MEAN_MOTION":13.12444075,"ECCENTRICITY":0.00029128,"INCLINATION":87.8958,"RA_OF_ASC_NODE":345.5394,"ARG_OF_PERICENTER":97.7268,"MEAN_ANOMALY":262.4191,"EPHEMERIS_TYPE":0,"NORAD_CAT_ID":47275,"ELEMENT_SET_NO":999,"REV_AT_EPOCH":26805,"BSTAR":0.000077128974,"MEAN_MOTION_DOT":4e-7,"MEAN_MOTION_DDOT":0},{"OBJECT_NAME":"ONEWEB-0130","OBJECT_ID":"2020-100U","EPOCH":"2026-07-12T21:09:47.794752","CLASSIFICATION_TYPE":"U","MEAN_MOTION":13.12442074,"ECCENTRICITY":0.0001824,"INCLINATION":87.8958,"RA_OF_ASC_NODE":345.5435,"ARG_OF_PERICENTER":95.7663,"MEAN_ANOMALY":264.3673,"EPHEMERIS_TYPE":0,"NORAD_CAT_ID":47276,"ELEMENT_SET_NO":999,"REV_AT_EPOCH":26801,"BSTAR":0.0011476666,"MEAN_MOTION_DOT":0.00000426,"MEAN_MOTION_DDOT":0},{"OBJECT_NAME":"ONEWEB-0131","OBJECT_ID":"2020-100V","EPOCH":"2026-07-12T21:04:55.304832","CLASSIFICATION_TYPE":"U","MEAN_MOTION":13.12442017,"ECCENTRICITY":0.00017946,"INCLINATION":87.8945,"RA_OF_ASC_NODE":345.5612,"ARG_OF_PERICENTER":99.1932,"MEAN_ANOMALY":260.9399,"EPHEMERIS_TYPE":0,"NORAD_CAT_ID":47277,"ELEMENT_SET_NO":999,"REV_AT_EPOCH":26805,"BSTAR":0.00088814459,"MEAN_MOTION_DOT":0.00000332,"MEAN_MOTION_DDOT":0},{"OBJECT_NAME":"ONEWEB-0132","OBJECT_ID":"2020-100W","EPOCH":"2026-07-12T21:46:22.266624","CLASSIFICATION_TYPE":"U","MEAN_MOTION":13.12442143,"ECCENTRICITY":0.00018124,"INCLINATION":87.8959,"RA_OF_ASC_NODE":345.5568,"ARG_OF_PERICENTER":98.2503,"MEAN_ANOMALY":261.8831,"EPHEMERIS_TYPE":0,"NORAD_CAT_ID":47278,"ELEMENT_SET_NO":999,"REV_AT_EPOCH":26795,"BSTAR":-0.0010735371,"MEAN_MOTION_DOT":-0.00000373,"MEAN_MOTION_DDOT":0},{"OBJECT_NAME":"ONEWEB-0133","OBJECT_ID":"2020-100X","EPOCH":"2026-07-12T22:10:33.889440","CLASSIFICATION_TYPE":"U","MEAN_MOTION":13.12445035,"ECCENTRICITY":0.00018079,"INCLINATION":87.8974,"RA_OF_ASC_NODE":345.532,"ARG_OF_PERICENTER":100.0242,"MEAN_ANOMALY":260.1091,"EPHEMERIS_TYPE":0,"NORAD_CAT_ID":47279,"ELEMENT_SET_NO":999,"REV_AT_EPOCH":26811,"BSTAR":-0.00051015721,"MEAN_MOTION_DOT":-0.00000171,"MEAN_MOTION_DDOT":0},{"OBJECT_NAME":"ONEWEB-0134","OBJECT_ID":"2020-100Y","EPOCH":"2026-07-12T21:26:51.724608","CLASSIFICATION_TYPE":"U","MEAN_MOTION":13.12441223,"ECCENTRICITY":0.00020221,"INCLINATION":87.8971,"RA_OF_ASC_NODE":345.5357,"ARG_OF_PERICENTER":101.4724,"MEAN_ANOMALY":258.6632,"EPHEMERIS_TYPE":0,"NORAD_CAT_ID":47280,"ELEMENT_SET_NO":999,"REV_AT_EPOCH":26808,"BSTAR":-0.00011921035,"MEAN_MOTION_DOT":-3e-7,"MEAN_MOTION_DDOT":0},{"OBJECT_NAME":"ONEWEB-0135","OBJECT_ID":"2020-100Z","EPOCH":"2026-07-13T07:44:04.825248","CLASSIFICATION_TYPE":"U","MEAN_MOTION":13.12444392,"ECCENTRICITY":0.0001955,"INCLINATION":87.8961,"RA_OF_ASC_NODE":345.4695,"ARG_OF_PERICENTER":105.0417,"MEAN_ANOMALY":255.0928,"EPHEMERIS_TYPE":0,"NORAD_CAT_ID":47281,"ELEMENT_SET_NO":999,"REV_AT_EPOCH":26816,"BSTAR":0.00083073533,"MEAN_MOTION_DOT":0.00000312,"MEAN_MOTION_DDOT":0}]}
